start=new Date('2021-10-13T00:00:00.000Z').valueOf();
sats=[{"ELEMENT_SET_NO":"999","OBJECT_NAME":"STARLINK-1613","LAUNCH_DATE":"2020-08-18","DECAY_DATE":null,"COUNTRY_CODE":"US","REF_FRAME":"TEME","GP_ID":"186981630","CLASSIFICATION_TYPE":"U","TLE_LINE2":"2 46165  53.0533 340.8757 0001338  82.0923 278.0217 15.06402504 63515","PERIAPSIS":"546.279","APOAPSIS":"548.132","MEAN_MOTION":"15.06402504","SEMIMAJOR_AXIS":"6925.341","FILE":"3158851","RCS_SIZE":"LARGE","PERIOD":"95.592","ECCENTRICITY":"0.00013380","MEAN_MOTION_DDOT":"0.0000000000000","EPOCH":"2021-10-12T10:19:38.302752","BSTAR":"0.00011672000000","TIME_SYSTEM":"UTC","RA_OF_ASC_NODE":"340.8757","MEAN_ELEMENT_THEORY":"SGP4","EPHEMERIS_TYPE":"0","MEAN_MOTION_DOT":"0.00001458","TLE_LINE1":"1 46165U 20057BA  21285.43030443  .00001458  00000-0  11672-3 0  9993","CENTER_NAME":"EARTH","INCLINATION":"53.0533","OBJECT_ID":"2020-057BA","ARG_OF_PERICENTER":"82.0923","SITE":"AFETR","REV_AT_EPOCH":"6351","MEAN_ANOMALY":"278.0217","NORAD_CAT_ID":"46165","OBJECT_TYPE":"PAYLOAD"},{"FILE":"3158941","ECCENTRICITY":"0.00010850","MEAN_MOTION_DDOT":"0.0000000000000","RCS_SIZE":"LARGE","PERIOD":"95.592","APOAPSIS":"547.959","SEMIMAJOR_AXIS":"6925.343","MEAN_MOTION":"15.06401800","COUNTRY_CODE":"US","TLE_LINE2":"2 46166  53.0544 340.6797 0001085  87.8165 272.2948 15.06401800 64189","PERIAPSIS":"546.457","CLASSIFICATION_TYPE":"U","GP_ID":"186984710","REF_FRAME":"TEME","ELEMENT_SET_NO":"999","LAUNCH_DATE":"2020-08-18","DECAY_DATE":null,"OBJECT_NAME":"STARLINK-1615","OBJECT_TYPE":"PAYLOAD","NORAD_CAT_ID":"46166","REV_AT_EPOCH":"6418","MEAN_ANOMALY":"272.2948","SITE":"AFETR","INCLINATION":"53.0544","OBJECT_ID":"2020-057BB","CENTER_NAME":"EARTH","ARG_OF_PERICENTER":"87.8165","TIME_SYSTEM":"UTC","EPOCH":"2021-10-12T11:18:01.224864","BSTAR":"0.00012000000000","EPHEMERIS_TYPE":"0","MEAN_MOTION_DOT":"0.00001507","TLE_LINE1":"1 46166U 20057BB  21285.47084751  .00001507  00000-0  12000-3 0  9990","RA_OF_ASC_NODE":"340.6797","MEAN_ELEMENT_THEORY":"SGP4"},{"MEAN_ANOMALY":"276.1242","REV_AT_EPOCH":"6351","SITE":"AFETR","OBJECT_TYPE":"PAYLOAD","NORAD_CAT_ID":"46167","EPHEMERIS_TYPE":"0","MEAN_MOTION_DOT":"-0.00002434","TLE_LINE1":"1 46167U 20057BC  21285.41923219 -.00002434  00000-0 -14460-3 0  9990","RA_OF_ASC_NODE":"340.9207","MEAN_ELEMENT_THEORY":"SGP4","TIME_SYSTEM":"UTC","BSTAR":"-0.00014460000000","EPOCH":"2021-10-12T10:03:41.661216","ARG_OF_PERICENTER":"83.9891","INCLINATION":"53.0560","OBJECT_ID":"2020-057BC","CENTER_NAME":"EARTH","SEMIMAJOR_AXIS":"6925.366","MEAN_MOTION":"15.06394381","APOAPSIS":"548.108","ECCENTRICITY":"0.00012660","MEAN_MOTION_DDOT":"0.0000000000000","RCS_SIZE":"LARGE","PERIOD":"95.592","FILE":"3158851","LAUNCH_DATE":"2020-08-18","DECAY_DATE":null,"OBJECT_NAME":"STARLINK-1626","ELEMENT_SET_NO":"999","TLE_LINE2":"2 46167  53.0560 340.9207 0001266  83.9891 276.1242 15.06394381 63512","PERIAPSIS":"546.354","CLASSIFICATION_TYPE":"U","GP_ID":"186982132","REF_FRAME":"TEME","COUNTRY_CODE":"US"},{"ELEMENT_SET_NO":"999","OBJECT_NAME":"STARLINK-1627","DECAY_DATE":null,"LAUNCH_DATE":"2020-08-18","COUNTRY_CODE":"US","GP_ID":"187014492","REF_FRAME":"TEME","PERIAPSIS":"546.301","TLE_LINE2":"2 46168  53.0533 289.5582 0001328  91.1422 268.9719 15.06397830 64259","CLASSIFICATION_TYPE":"U","APOAPSIS":"548.140","MEAN_MOTION":"15.06397830","SEMIMAJOR_AXIS":"6925.355","FILE":"3159338","PERIOD":"95.592","RCS_SIZE":"LARGE","ECCENTRICITY":"0.00013280","MEAN_MOTION_DDOT":"0.0000000000000","EPOCH":"2021-10-12T17:18:54.792864","BSTAR":"0.00005313600000","TIME_SYSTEM":"UTC","MEAN_ELEMENT_THEORY":"SGP4","RA_OF_ASC_NODE":"289.5582","MEAN_MOTION_DOT":"0.00000510","TLE_LINE1":"1 46168U 20057BD  21285.72146751  .00000510  00000-0  53136-4 0  9998","EPHEMERIS_TYPE":"0","CENTER_NAME":"EARTH","OBJECT_ID":"2020-057BD","INCLINATION":"53.0533","ARG_OF_PERICENTER":"91.1422","SITE":"AFETR","MEAN_ANOMALY":"268.9719","REV_AT_EPOCH":"6425","NORAD_CAT_ID":"46168","OBJECT_TYPE":"PAYLOAD"},{"SITE":"AFETR","REV_AT_EPOCH":"6414","MEAN_ANOMALY":"263.4993","NORAD_CAT_ID":"46169","OBJECT_TYPE":"PAYLOAD","EPOCH":"2021-10-12T08:52:36.743808","BSTAR":"0.00005907200000","TIME_SYSTEM":"UTC","RA_OF_ASC_NODE":"341.1317","MEAN_ELEMENT_THEORY":"SGP4","EPHEMERIS_TYPE":"0","MEAN_MOTION_DOT":"0.00000582","TLE_LINE1":"1 46169U 20057BE  21285.36986972  .00000582  00000-0  59072-4 0  9990","CENTER_NAME":"EARTH","INCLINATION":"53.0009","OBJECT_ID":"2020-057BE","ARG_OF_PERICENTER":"96.6128","APOAPSIS":"550.510","SEMIMAJOR_AXIS":"6927.836","MEAN_MOTION":"15.05588860","FILE":"3158931","RCS_SIZE":"LARGE","PERIOD":"95.644","MEAN_MOTION_DDOT":"0.0000000000000","ECCENTRICITY":"0.00011680","ELEMENT_SET_NO":"999","OBJECT_NAME":"STARLINK-1628","LAUNCH_DATE":"2020-08-18","DECAY_DATE":null,"COUNTRY_CODE":"US","GP_ID":"186984450","REF_FRAME":"TEME","PERIAPSIS":"548.892","TLE_LINE2":"2 46169  53.0009 341.1317 0001168  96.6128 263.4993 15.05588860 64140","CLASSIFICATION_TYPE":"U"},{"DECAY_DATE":null,"LAUNCH_DATE":"2020-08-18","OBJECT_NAME":"STARLINK-1633","ELEMENT_SET_NO":"999","TLE_LINE2":"2 46171  53.0547 320.7269 0001091  71.8050 288.3058 15.06395220 65059","CLASSIFICATION_TYPE":"U","PERIAPSIS":"546.473","REF_FRAME":"TEME","GP_ID":"186981381","COUNTRY_CODE":"US","SEMIMAJOR_AXIS":"6925.363","MEAN_MOTION":"15.06395220","APOAPSIS":"547.984","ECCENTRICITY":"0.00010910","MEAN_MOTION_DDOT":"0.0000000000000","PERIOD":"95.592","RCS_SIZE":"LARGE","FILE":"3158851","TLE_LINE1":"1 46171U 20057BG  21285.46163513 -.00000120  00000-0  10844-4 0  9995","MEAN_MOTION_DOT":"-0.00000120","EPHEMERIS_TYPE":"0","MEAN_ELEMENT_THEORY":"SGP4","RA_OF_ASC_NODE":"320.7269","TIME_SYSTEM":"UTC","BSTAR":"0.00001084400000","EPOCH":"2021-10-12T11:04:45.275232","ARG_OF_PERICENTER":"71.8050","OBJECT_ID":"2020-057BG","INCLINATION":"53.0547","CENTER_NAME":"EARTH","REV_AT_EPOCH":"6505","MEAN_ANOMALY":"288.3058","SITE":"AFETR","OBJECT_TYPE":"PAYLOAD","NORAD_CAT_ID":"46171"},{"SITE":"AFETR","REV_AT_EPOCH":"6505","MEAN_ANOMALY":"274.2970","NORAD_CAT_ID":"46172","OBJECT_TYPE":"PAYLOAD","BSTAR":"0.00016487000000","EPOCH":"2021-10-12T11:25:58.413792","TIME_SYSTEM":"UTC","RA_OF_ASC_NODE":"320.6669","MEAN_ELEMENT_THEORY":"SGP4","EPHEMERIS_TYPE":"0","TLE_LINE1":"1 46172U 20057BH  21285.47637053  .00002176  00000-0  16487-3 0  9992","MEAN_MOTION_DOT":"0.00002176","CENTER_NAME":"EARTH","INCLINATION":"53.0553","OBJECT_ID":"2020-057BH","ARG_OF_PERICENTER":"85.8137","APOAPSIS":"547.912","SEMIMAJOR_AXIS":"6925.328","MEAN_MOTION":"15.06406550","FILE":"3158851","RCS_SIZE":"LARGE","PERIOD":"95.592","ECCENTRICITY":"0.00010380","MEAN_MOTION_DDOT":"0.0000000000000","ELEMENT_SET_NO":"999","OBJECT_NAME":"STARLINK-1635","LAUNCH_DATE":"2020-08-18","DECAY_DATE":null,"COUNTRY_CODE":"US","GP_ID":"186982632","REF_FRAME":"TEME","TLE_LINE2":"2 46172  53.0553 320.6669 0001038  85.8137 274.2970 15.06406550 65058","CLASSIFICATION_TYPE":"U","PERIAPSIS":"546.475"},{"APOAPSIS":"548.068","SEMIMAJOR_AXIS":"6925.333","MEAN_MOTION":"15.06405125","FILE":"3158851","RCS_SIZE":"LARGE","PERIOD":"95.592","MEAN_MOTION_DDOT":"0.0000000000000","ECCENTRICITY":"0.00012560","ELEMENT_SET_NO":"999","OBJECT_NAME":"STARLINK-1640","LAUNCH_DATE":"2020-08-18","DECAY_DATE":null,"COUNTRY_CODE":"US","GP_ID":"186982883","REF_FRAME":"TEME","TLE_LINE2":"2 46173  53.0559 340.7535 0001256  95.3143 264.7990 15.06405125 63517","PERIAPSIS":"546.328","CLASSIFICATION_TYPE":"U","SITE":"AFETR","MEAN_ANOMALY":"264.7990","REV_AT_EPOCH":"6351","NORAD_CAT_ID":"46173","OBJECT_TYPE":"PAYLOAD","BSTAR":"0.00019359000000","EPOCH":"2021-10-12T10:56:47.147136","TIME_SYSTEM":"UTC","RA_OF_ASC_NODE":"340.7535","MEAN_ELEMENT_THEORY":"SGP4","EPHEMERIS_TYPE":"0","MEAN_MOTION_DOT":"0.00002604","TLE_LINE1":"1 46173U 20057BJ  21285.45610124  .00002604  00000-0  19359-3 0  9998","CENTER_NAME":"EARTH","INCLINATION":"53.0559","OBJECT_ID":"2020-057BJ","ARG_OF_PERICENTER":"95.3143"},{"ELEMENT_SET_NO":"999","LAUNCH_DATE":"2020-08-18","DECAY_DATE":null,"OBJECT_NAME":"STARLINK-1641","COUNTRY_CODE":"US","TLE_LINE2":"2 46174  53.0552 340.7125 0001295  83.1536 276.9600 15.06388046 63515","PERIAPSIS":"546.353","CLASSIFICATION_TYPE":"U","REF_FRAME":"TEME","GP_ID":"186981631","APOAPSIS":"548.147","MEAN_MOTION":"15.06388046","SEMIMAJOR_AXIS":"6925.385","FILE":"3158851","ECCENTRICITY":"0.00012950","MEAN_MOTION_DDOT":"0.0000000000000","RCS_SIZE":"LARGE","PERIOD":"95.593","TIME_SYSTEM":"UTC","BSTAR":"-0.00030336000000","EPOCH":"2021-10-12T11:07:22.308096","EPHEMERIS_TYPE":"0","TLE_LINE1":"1 46174U 20057BK  21285.46345264 -.00004795  00000-0 -30336-3 0  9993","MEAN_MOTION_DOT":"-0.00004795","RA_OF_ASC_NODE":"340.7125","MEAN_ELEMENT_THEORY":"SGP4","INCLINATION":"53.0552","OBJECT_ID":"2020-057BK","CENTER_NAME":"EARTH","ARG_OF_PERICENTER":"83.1536","REV_AT_EPOCH":"6351","MEAN_ANOMALY":"276.9600","SITE":"AFETR","OBJECT_TYPE":"PAYLOAD","NORAD_CAT_ID":"46174"},{"MEAN_ELEMENT_THEORY":"SGP4","RA_OF_ASC_NODE":"355.6696","TLE_LINE1":"1 46325U 20062A   21285.47499601  .00002628  00000-0  19522-3 0  9998","MEAN_MOTION_DOT":"0.00002628","EPHEMERIS_TYPE":"0","BSTAR":"0.00019522000000","EPOCH":"2021-10-12T11:23:59.655264","TIME_SYSTEM":"UTC","ARG_OF_PERICENTER":"104.1946","CENTER_NAME":"EARTH","OBJECT_ID":"2020-062A","INCLINATION":"53.0559","SITE":"AFETR","REV_AT_EPOCH":"6300","MEAN_ANOMALY":"255.9170","NORAD_CAT_ID":"46325","OBJECT_TYPE":"PAYLOAD","OBJECT_NAME":"STARLINK-1734","DECAY_DATE":null,"LAUNCH_DATE":"2020-09-03","ELEMENT_SET_NO":"999","REF_FRAME":"TEME","GP_ID":"186982644","TLE_LINE2":"2 46325  53.0559 355.6696 0001150 104.1946 255.9170 15.06404935 63006","CLASSIFICATION_TYPE":"U","PERIAPSIS":"546.402","COUNTRY_CODE":"US","MEAN_MOTION":"15.06404935","SEMIMAJOR_AXIS":"6925.333","APOAPSIS":"547.995","PERIOD":"95.592","RCS_SIZE":"LARGE","MEAN_MOTION_DDOT":"0.0000000000000","ECCENTRICITY":"0.00011500","FILE":"3158851"}];
